NORAD_CAT_ID,OBJECT_NAME,OBJECT_TYPE,EPOCH,MEAN_MOTION,ECCENTRICITY,INCLINATION,RA_OF_ASC_NODE,ARG_OF_PERICENTER,MEAN_ANOMALY,BSTAR,MEAN_MOTION_DOT,MEAN_MOTION_DDOT,TLE_LINE0,TLE_LINE1,TLE_LINE2,SEMIMAJOR_AXIS,PERIOD,APOGEE,PERIGEE,DECAYED
53933.0,STARLINK-4782,PAYLOAD,2022-10-27 14:00:01,15.73244434,0.0001252999999999,53.2152,91.5402,55.7778,315.8163,-3.0424e-05,-4.896e-05,0.0,0 STARLINK-4782,1 53933U 22119AZ  22300.58335648 -.00004896  00000-0 -30424-4 0  9993,2 53933  53.2152  91.5402 0001253  55.7778 315.8163 15.73244434  1302,6727.768,91.531,350.476,348.791,0.0
53933.0,STARLINK-4782,PAYLOAD,2022-10-27 22:00:00,15.73250218,0.0001346,53.2153,89.8918,42.5333,57.9942,-0.00024781,-0.00035328,0.0,0 STARLINK-4782,1 53933U 22119AZ  22300.91667824 -.00035328  00000-0 -24781-3 0  9996,2 53933  53.2153  89.8918 0001346  42.5333  57.9942 15.73250218  1305,6727.752,91.53,350.523,348.711,0.0
53933.0,STARLINK-4782,PAYLOAD,2022-10-28 14:00:01,15.73224743,0.000136,53.2157,86.5917,44.0085,234.4741,-0.00028699,-0.00040745,0.0,0 STARLINK-4782,1 53933U 22119AZ  22301.58335648 -.00040745  00000-0 -28699-3 0  9997,2 53933  53.2157  86.5917 0001360  44.0085 234.4741 15.73224743  5722,6727.825,91.532,350.605,348.775,0.0
53933.0,STARLINK-4782,PAYLOAD,2022-10-28 22:00:01,15.73199715,0.0001665999999999,53.2151,84.9432,41.1305,326.2938,-8.827200000000001e-05,-0.0001299,0.0,0 STARLINK-4782,1 53933U 22119AZ  22301.91668981 -.00012990  00000-0 -88272-4 0  9998,2 53933  53.2151  84.9432 0001666  41.1305 326.2938 15.73199715  1300,6727.896,91.533,350.88199999999995,348.64,0.0
53933.0,STARLINK-4782,PAYLOAD,2022-10-29 12:00:00,15.73170201,0.0001520999999999,53.2156,82.0554,47.7898,25.1817,0.00050117,0.00070216,0.0,0 STARLINK-4782,1 53933U 22119AZ  22302.50001157  .00070216  00000-0  50117-3 0  9999,2 53933  53.2156  82.0554 0001521  47.7898  25.1817 15.73170201  1308,6727.98,91.535,350.86800000000005,348.82199999999995,0.0
53933.0,STARLINK-4782,PAYLOAD,2022-10-29 22:00:01,15.73265612,0.0001655,53.2156,79.9948,34.9601,239.2279,3.8242e-05,4.764e-05,0.0,0 STARLINK-4782,1 53933U 22119AZ  22302.91668981  .00004764  00000-0  38242-4 0  9999,2 53933  53.2156  79.9948 0001655  34.9601 239.2279 15.73265612  1309,6727.708000000001,91.529,350.68699999999984,348.46,0.0
53933.0,STARLINK-4782,PAYLOAD,2022-10-30 00:00:00,15.73301221,0.000167,53.2157,79.5819,35.5916,350.7726,-0.0005172,-0.00072897,0.0,0 STARLINK-4782,1 53933U 22119AZ  22303.00001157 -.00072897  00000-0 -51720-3 0  9995,2 53933  53.2157  79.5819 0001670  35.5916 350.7726 15.73301221  5943,6727.607,91.527,350.595,348.348,0.0
53933.0,STARLINK-4782,PAYLOAD,2022-10-30 14:00:01,15.73190063,0.0001893,53.2158,76.6951,43.2148,48.8609,-0.00072476,-0.00101088,0.0,0 STARLINK-4782,1 53933U 22119AZ  22303.58334491 -.00101088  00000-0 -72476-3 0  9994,2 53933  53.2158  76.6951 0001893  43.2148  48.8609 15.73190063  1300,6727.924,91.534,351.06199999999984,348.515,0.0
53933.0,STARLINK-4782,PAYLOAD,2022-10-30 22:00:01,15.731102900000002,0.0001899999999999,53.2152,75.0462,34.3759,146.6441,6.4445e-05,8.399e-05,0.0,0 STARLINK-4782,1 53933U 22119AZ  22303.91668981  .00008399  00000-0  64445-4 0  9992,2 53933  53.2152  75.0462 0001900  34.3759 146.6441 15.73110290  1307,6728.151,91.538,351.2940000000001,348.73800000000006,0.0
53933.0,STARLINK-4782,PAYLOAD,2022-10-31 14:00:01,15.7318629,0.0001827,53.2155,71.7472,33.9152,324.7122,0.00035224,0.00049076,0.0,0 STARLINK-4782,1 53933U 22119AZ  22304.58334491  .00049076  00000-0  35224-3 0  9991,2 53933  53.2155  71.7472 0001827  33.9152 324.7122 15.73186290  1302,6727.934,91.534,351.028,348.57,0.0
53933.0,STARLINK-4782,PAYLOAD,2022-10-31 20:00:01,15.73230648,0.0001942,53.2155,70.5108,26.9639,308.4228,-1.8707e-05,-3.249e-05,0.0,0 STARLINK-4782,1 53933U 22119AZ  22304.83335648 -.00003249  00000-0 -18707-4 0  9996,2 53933  53.2155  70.5108 0001942  26.9639 308.4228 15.73230648  6235,6727.808000000001,91.531,350.97900000000016,348.366,0.0
53933.0,STARLINK-4782,PAYLOAD,2022-10-31 22:00:01,15.73258717,0.000195,53.2155,70.0978,27.4363,60.185,-0.00052426,-0.00073746,0.0,0 STARLINK-4782,1 53933U 22119AZ  22304.91668981 -.00073746  00000-0 -52426-3 0  9998,2 53933  53.2155  70.0978 0001950  27.4363  60.1850 15.73258717  1307,6727.728,91.53,350.905,348.281,0.0
53933.0,STARLINK-4782,PAYLOAD,2022-11-01 14:00:01,15.73261185,0.0002029999999999,53.2157,66.7984,29.6327,235.8206,-0.0002444,-0.00034872,0.0,0 STARLINK-4782,1 53933U 22119AZ  22305.58334491 -.00034872  00000-0 -24440-3 0  9990,2 53933  53.2157  66.7984 0002030  29.6327 235.8206 15.73261185  1301,6727.721,91.53,350.951,348.22,0.0
53933.0,STARLINK-4782,PAYLOAD,2022-11-01 22:00:00,15.73262322,0.0002075,53.2152,65.1487,22.6195,331.8185,-0.00044859,-0.0006328,0.0,0 STARLINK-4782,1 53933U 22119AZ  22305.91667824 -.00063280  00000-0 -44859-3 0  9997,2 53933  53.2152  65.1487 0002075  22.6195 331.8185 15.73262322  1309,6727.717,91.53,350.978,348.186,0.0
53933.0,STARLINK-4782,PAYLOAD,2022-11-02 06:00:00,15.73223633,0.0001940999999999,53.2154,63.4974,29.1176,54.2997,-0.00068638,-0.00095963,0.0,0 STARLINK-4782,1 53933U 22119AZ  22306.25001157 -.00095963  00000-0 -68638-3 0  9990,2 53933  53.2154  63.4974 0001941  29.1176  54.2997 15.73223633  6466,6727.828,91.532,350.999,348.38699999999994,0.0
53933.0,STARLINK-4782,PAYLOAD,2022-11-02 14:00:01,15.7311977,0.000235,53.2159,61.8469,32.8278,139.5179,0.00046528,0.00064965,0.0,0 STARLINK-4782,1 53933U 22119AZ  22306.58334491  .00064965  00000-0  46528-3 0  9996,2 53933  53.2159  61.8469 0002350  32.8278 139.5179 15.73119770  1304,6728.124,91.538,351.57,348.408,0.0
53933.0,STARLINK-4782,PAYLOAD,2022-11-02 22:00:00,15.73021124,0.0002039,53.2163,60.1869,28.788,232.5598,0.0011638,0.0016469,0.0,0 STARLINK-4782,1 53933U 22119AZ  22306.91667824  .00164690  00000-0  11638-2 0  9991,2 53933  53.2163  60.1869 0002039  28.7880 232.5598 15.73021124  6569,6728.405,91.544,351.642,348.898,0.0
53933.0,STARLINK-4782,PAYLOAD,2022-11-03 06:00:02,15.73208633,0.0002136,53.216,58.5482,26.166,324.111,0.00045951,0.00064392,0.0,0 STARLINK-4782,1 53933U 22119AZ  22307.25002315  .00064392  00000-0  45951-3 0  9991,2 53933  53.2160  58.5482 0002136  26.1660 324.1110 15.73208633  6610,6727.871,91.533,351.173,348.298,0.0
53933.0,STARLINK-4782,PAYLOAD,2022-11-03 14:00:01,15.73268252,0.000231,53.2166,56.8941,21.0795,58.0551,-0.00075708,-0.0010587,0.0,0 STARLINK-4782,1 53933U 22119AZ  22307.58334491 -.00105870  00000-0 -75708-3 0  9992,2 53933  53.2166  56.8941 0002310  21.0795  58.0551 15.73268252  1300,6727.701,91.529,351.12,348.011,0.0
53933.0,STARLINK-4782,PAYLOAD,2022-11-03 22:00:00,15.73000604,0.0002184,53.2165,55.2376,17.1451,151.0038,0.0015313,0.00218096,0.0,0 STARLINK-4782,1 53933U 22119AZ  22307.91667824  .00218096  00000-0  15313-2 0  9996,2 53933  53.2165  55.2376 0002184  17.1451 151.0038 15.73000604  6728,6728.464,91.545,351.798,348.8590000000001,0.0
53933.0,STARLINK-4782,PAYLOAD,2022-11-04 14:00:01,15.73205258,0.0001944,53.2172,51.9331,25.2197,320.6342,-1.5267e-05,-2.764e-05,0.0,0 STARLINK-4782,1 53933U 22119AZ  22308.58334491 -.00002764  00000-0 -15267-4 0  9996,2 53933  53.2172  51.9331 0001944  25.2197 320.6342 15.73205258  6825,6727.88,91.533,351.05300000000005,348.43699999999984,0.0
53933.0,STARLINK-4782,PAYLOAD,2022-11-04 22:00:01,15.73138356,0.0002496,53.2162,50.3017,17.3684,57.6349,0.0003842,0.00053506,0.0,0 STARLINK-4782,1 53933U 22119AZ  22308.91668981  .00053506  00000-0  38420-3 0  9990,2 53933  53.2162  50.3017 0002496  17.3684  57.6349 15.73138356  6888,6728.071,91.537,351.615,348.25699999999995,0.0
53933.0,STARLINK-4782,PAYLOAD,2022-11-05 14:00:01,15.73206718,0.0002714,53.2167,47.0035,17.4925,235.3049,-0.00039913,-0.00056291,0.0,0 STARLINK-4782,1 53933U 22119AZ  22309.58335648 -.00056291  00000-0 -39913-3 0  9999,2 53933  53.2167  47.0035 0002714  17.4925 235.3049 15.73206718  1300,6727.876,91.533,351.56699999999995,347.915,0.0
53933.0,STARLINK-4782,PAYLOAD,2022-11-05 22:00:01,15.73210601,0.0002684,53.2164,45.3532,15.4718,326.2325,-0.00041876,-0.0005902,0.0,0 STARLINK-4782,1 53933U 22119AZ  22309.91668981 -.00059020  00000-0 -41876-3 0  9999,2 53933  53.2164  45.3532 0002684  15.4718 326.2325 15.73210601  7033,6727.865,91.533,351.536,347.9240000000001,0.0
53933.0,STARLINK-4782,PAYLOAD,2022-11-06 14:00:01,15.73185138,0.0002791,53.2167,42.0554,12.0933,147.3621,-1.8462e-05,-3.211e-05,0.0,0 STARLINK-4782,1 53933U 22119AZ  22310.58334491 -.00003211  00000-0 -18462-4 0  9997,2 53933  53.2167  42.0554 0002791  12.0933 147.3621 15.73185138  1306,6727.938,91.534,351.68,347.925,0.0
53933.0,STARLINK-4782,PAYLOAD,2022-11-07 14:00:01,15.73163708,0.0003029,53.2174,37.1073,13.5965,52.6256,0.00057105,0.00080178,0.0,0 STARLINK-4782,1 53933U 22119AZ  22311.58334491  .00080178  00000-0  57105-3 0  9999,2 53933  53.2174  37.1073 0003029  13.5965  52.6256 15.73163708  7308,6727.999,91.535,351.902,347.826,0.0
53933.0,STARLINK-4782,PAYLOAD,2022-11-07 22:00:00,15.73266698,0.0002976,53.217,35.4567,12.436,142.6943,-0.00034531,-0.00048954,0.0,0 STARLINK-4782,1 53933U 22119AZ  22311.91667824 -.00048954  00000-0 -34531-3 0  9991,2 53933  53.2170  35.4567 0002976  12.4360 142.6943 15.73266698  1309,6727.705,91.529,351.57199999999995,347.5680000000001,0.0
53933.0,STARLINK-4782,PAYLOAD,2022-11-08 06:00:00,15.73287986,0.0002873,53.2172,33.8063,14.3676,229.8174,-4.4016000000000014e-05,-6.82e-05,0.0,0 STARLINK-4782,1 53933U 22119AZ  22312.25001157 -.00006820  00000-0 -44016-4 0  9996,2 53933  53.2172  33.8063 0002873  14.3676 229.8174 15.73287986  7405,6727.644,91.528,351.44199999999995,347.576,0.0
53933.0,STARLINK-4782,PAYLOAD,2022-11-08 14:00:01,15.7325989,0.0003217,53.2171,32.1587,14.3646,318.8425,0.00059855,0.00084463,0.0,0 STARLINK-4782,1 53933U 22119AZ  22312.58334491  .00084463  00000-0  59855-3 0  9995,2 53933  53.2171  32.1587 0003217  14.3646 318.8425 15.73259890  1301,6727.724,91.53,351.754,347.425,0.0
